{
"type": "FeatureCollection",
"name": "governorates",
"crs": { "type": "name", "properties": { "name": "urn:ogc:def:crs:OGC:1.3:CRS84" } },
"features": [
{ "type": "Feature", "properties": { "gov": "Alexandria", "gov_ar": "محافظة الإسكندرية", "system": "Delta - other", "cultivated_kfeddan": 100, "cultivated_ha": 42000.0, "gov_area_ha": 230474.35944185586 }, "geometry": { "type": "Polygon", "coordinates": [ [ [ 29.59807, 31.009506 ], [ 29.765961, 31.121568 ], [ 29.781505, 31.147935 ], [ 29.83839, 31.15412 ], [ 29.884613, 31.189521 ], [ 29.863536, 31.196357 ], [ 29.876964, 31.213568 ], [ 29.898204, 31.203192 ], [ 30.069591, 31.333482 ], [ 30.066661, 31.304877 ], [ 30.098481, 31.284654 ], [ 30.038456, 31.181275 ], [ 30.000112, 31.140787 ], [ 29.867149, 31.071566 ], [ 29.909834, 31.00511 ], [ 29.864203, 30.939662 ], [ 29.867149, 30.916744 ], [ 29.984764, 30.760526 ], [ 30.01267, 30.698307 ], [ 29.928437, 30.590924 ], [ 29.728708, 30.50279 ], [ 29.684473, 30.462198 ], [ 29.62489, 30.337089 ], [ 29.59807, 31.009506 ] ] ] } },
{ "type": "Feature", "properties": { "gov": "Assiut", "gov_ar": "محافظة أسيوط", "system": "Nile Valley", "cultivated_kfeddan": 400, "cultivated_ha": 168000.0, "gov_area_ha": 260218.01880012974 }, "geometry": { "type": "Polygon", "coordinates": [ [ [ 30.671234, 27.634024 ], [ 30.76544, 27.630924 ], [ 30.83448, 27.608703 ], [ 30.941244, 27.620149 ], [ 30.939228, 27.502482 ], [ 30.965583, 27.436465 ], [ 31.071882, 27.373187 ], [ 31.236678, 27.31717 ], [ 31.288354, 27.283374 ], [ 31.340651, 27.190485 ], [ 31.489014, 27.067805 ], [ 31.619032, 26.833194 ], [ 31.552782, 26.837225 ], [ 31.461987, 26.940113 ], [ 31.393102, 26.882468 ], [ 31.299981, 26.83738 ], [ 31.162057, 27.079794 ], [ 31.080408, 27.149506 ], [ 30.939383, 27.208986 ], [ 30.790865, 27.337453 ], [ 30.681001, 27.536588 ], [ 30.671234, 27.634024 ] ] ] } },
{ "type": "Feature", "properties": { "gov": "Aswan", "gov_ar": "محافظة أسوان", "system": "Nile Valley", "cultivated_kfeddan": 150, "cultivated_ha": 63000.0, "gov_area_ha": 1555441.1931330904 }, "geometry": { "type": "Polygon", "coordinates": [ [ [ 31.494719, 21.995387 ], [ 31.435476, 21.995351 ], [ 31.490563, 22.14821 ], [ 31.482915, 22.195442 ], [ 31.460901, 22.215493 ], [ 31.42328, 22.226965 ], [ 31.38535, 22.214459 ], [ 31.314388, 22.102273 ], [ 31.22505, 22.196888 ], [ 31.277502, 22.269158 ], [ 31.491804, 22.323728 ], [ 31.597328, 22.432533 ], [ 31.620272, 22.502684 ], [ 31.593555, 22.648437 ], [ 31.622907, 22.704842 ], [ 31.651433, 22.730215 ], [ 31.703109, 22.744297 ], [ 31.833954, 22.722593 ], [ 32.193312, 22.872067 ], [ 32.296975, 22.813698 ], [ 32.374851, 22.813569 ], [ 32.41459, 22.771479 ], [ 32.435984, 22.772693 ], [ 32.491588, 22.859923 ], [ 32.523214, 22.971389 ], [ 32.633698, 23.215508 ], [ 32.761856, 23.361753 ], [ 32.764801, 23.396195 ], [ 32.747748, 23.419475 ], [ 32.501045, 23.405755 ], [ 32.437845, 23.422576 ], [ 32.426373, 23.448879 ], [ 32.478979, 23.651141 ], [ 32.52771, 23.714031 ], [ 32.584657, 23.75098 ], [ 32.732865, 23.772503 ], [ 32.762941, 23.794181 ], [ 32.745113, 23.835961 ], [ 32.645636, 23.895777 ], [ 32.655247, 23.99913 ], [ 32.694522, 24.02427 ], [ 32.831102, 24.037758 ], [ 32.873994, 24.080288 ], [ 32.886396, 24.126331 ], [ 32.870738, 24.199143 ], [ 32.878025, 24.490004 ], [ 32.930321, 24.649038 ], [ 32.899212, 24.758618 ], [ 32.849706, 24.857139 ], [ 32.834823, 24.973876 ], [ 32.808416, 25.032994 ], [ 32.770227, 25.078495 ], [ 32.653852, 25.145701 ], [ 32.693746, 25.179213 ], [ 32.704753, 25.269879 ], [ 32.907583, 25.128983 ], [ 32.979569, 25.031186 ], [ 33.009076, 24.913777 ], [ 33.018688, 24.744149 ], [ 33.131497, 24.523801 ], [ 33.108088, 24.441454 ], [ 33.0021, 24.303142 ], [ 32.972127, 24.155916 ], [ 33.009541, 23.962155 ], [ 33.068504, 23.836194 ], [ 33.158317, 23.746148 ], [ 33.168446, 23.630909 ], [ 33.140024, 23.531406 ], [ 33.162038, 23.438182 ], [ 33.212784, 23.329636 ], [ 33.162245, 23.198507 ], [ 33.115219, 23.157166 ], [ 33.055946, 23.056965 ], [ 33.075325, 23.025391 ], [ 33.214955, 22.96033 ], [ 33.283116, 22.884133 ], [ 33.331537, 22.743134 ], [ 33.329677, 22.706315 ], [ 33.290247, 22.709338 ], [ 33.121421, 22.843955 ], [ 32.95988, 22.845376 ], [ 32.86986, 22.919661 ], [ 32.837769, 22.927541 ], [ 32.779891, 22.840234 ], [ 32.784387, 22.754451 ], [ 32.761546, 22.70231 ], [ 32.537322, 22.499299 ], [ 32.454795, 22.465709 ], [ 32.338264, 22.461472 ], [ 32.277596, 22.486276 ], [ 32.18122, 22.57193 ], [ 32.136984, 22.580741 ], [ 32.044174, 22.372407 ], [ 31.996115, 22.312023 ], [ 31.944593, 22.278589 ], [ 31.860309, 22.264895 ], [ 31.798556, 22.193839 ], [ 31.569526, 22.091288 ], [ 31.52436, 22.050437 ], [ 31.494719, 21.995387 ] ] ] } },
{ "type": "Feature", "properties": { "gov": "Beheira", "gov_ar": "محافظة البحيرة", "system": "Delta - rice belt", "cultivated_kfeddan": 1020, "cultivated_ha": 428400.0, "gov_area_ha": 1177029.3134985554 }, "geometry": { "type": "Polygon", "coordinates": [ [ [ 30.098481, 31.284654 ], [ 30.172618, 31.27143 ], [ 30.140147, 31.23725 ], [ 30.165212, 31.216783 ], [ 30.206798, 31.237942 ], [ 30.201671, 31.226508 ], [ 30.22047, 31.220201 ], [ 30.261404, 31.244127 ], [ 30.268809, 31.265286 ], [ 30.288748, 31.237942 ], [ 30.302989, 31.27143 ], [ 30.287608, 31.278225 ], [ 30.240896, 31.265286 ], [ 30.254568, 31.278266 ], [ 30.179454, 31.278266 ], [ 30.25172, 31.303412 ], [ 30.312836, 31.350572 ], [ 30.348399, 31.421332 ], [ 30.350759, 31.497992 ], [ 30.378429, 31.446682 ], [ 30.424841, 31.42909 ], [ 30.426081, 31.384855 ], [ 30.44856, 31.375088 ], [ 30.458276, 31.348009 ], [ 30.47383, 31.33987 ], [ 30.483339, 31.354572 ], [ 30.51822, 31.32814 ], [ 30.520236, 31.28946 ], [ 30.494346, 31.238068 ], [ 30.51481, 31.238068 ], [ 30.525403, 31.196494 ], [ 30.570155, 31.199595 ], [ 30.723221, 31.062265 ], [ 30.727717, 31.01896 ], [ 30.763632, 30.983613 ], [ 30.751643, 30.976766 ], [ 30.782338, 30.922764 ], [ 30.75712, 30.88597 ], [ 30.793811, 30.868297 ], [ 30.761875, 30.827163 ], [ 30.816497, 30.827163 ], [ 30.753245, 30.775538 ], [ 30.768541, 30.760087 ], [ 30.792415, 30.763626 ], [ 30.774432, 30.716446 ], [ 30.793656, 30.694587 ], [ 30.804663, 30.613455 ], [ 30.837581, 30.586971 ], [ 30.823938, 30.552218 ], [ 30.851223, 30.545991 ], [ 30.830759, 30.497596 ], [ 30.851223, 30.453206 ], [ 30.844402, 30.401375 ], [ 30.87949, 30.372901 ], [ 30.83324, 30.361687 ], [ 30.833085, 30.333808 ], [ 30.368979, 29.970781 ], [ 30.328619, 29.898201 ], [ 29.67176, 30.251978 ], [ 29.62489, 30.337089 ], [ 29.684473, 30.462198 ], [ 29.728708, 30.50279 ], [ 29.928437, 30.590924 ], [ 30.01267, 30.698307 ], [ 29.984764, 30.760526 ], [ 29.867149, 30.916744 ], [ 29.864203, 30.939662 ], [ 29.909834, 31.00511 ], [ 29.867614, 31.075571 ], [ 30.011429, 31.148693 ], [ 30.098481, 31.284654 ] ] ] } },
{ "type": "Feature", "properties": { "gov": "Beni Suef", "gov_ar": "محافظة بني سويف", "system": "Nile Valley", "cultivated_kfeddan": 300, "cultivated_ha": 126000.0, "gov_area_ha": 479705.86138273485 }, "geometry": { "type": "Polygon", "coordinates": [ [ [ 30.316372, 28.976242 ], [ 30.780168, 29.082385 ], [ 30.864297, 29.120626 ], [ 31.101854, 29.400118 ], [ 31.202365, 29.389886 ], [ 31.255901, 29.339346 ], [ 31.253266, 29.202714 ], [ 31.216989, 29.122073 ], [ 30.99292, 28.846043 ], [ 30.944189, 28.715664 ], [ 30.768696, 28.780957 ], [ 29.749223, 28.759304 ], [ 29.814852, 29.088432 ], [ 30.249761, 29.018126 ], [ 30.316372, 28.976242 ] ] ] } },
{ "type": "Feature", "properties": { "gov": "Dakahlia", "gov_ar": "محافظة الدقهلية", "system": "Delta - rice belt", "cultivated_kfeddan": 760, "cultivated_ha": 319200.0, "gov_area_ha": 362224.49931142514 }, "geometry": { "type": "MultiPolygon", "coordinates": [ [ [ [ 32.25646, 31.276219 ], [ 32.214122, 31.278266 ], [ 32.207042, 31.295071 ], [ 32.256602, 31.288804 ], [ 32.25646, 31.276219 ] ] ], [ [ [ 31.794932, 31.277696 ], [ 31.828624, 31.274115 ], [ 31.834158, 31.251614 ], [ 31.885753, 31.223619 ], [ 31.906261, 31.251614 ], [ 31.906261, 31.223619 ], [ 31.892589, 31.216783 ], [ 31.906261, 31.216783 ], [ 31.899425, 31.203192 ], [ 31.926606, 31.210639 ], [ 31.926443, 31.186998 ], [ 31.986583, 31.230292 ], [ 32.009288, 31.210639 ], [ 32.03712, 31.216783 ], [ 32.036876, 31.150295 ], [ 32.016124, 31.128079 ], [ 32.043956, 31.14175 ], [ 32.052337, 31.128774 ], [ 31.948159, 31.084072 ], [ 31.783518, 31.065856 ], [ 31.668228, 30.908553 ], [ 31.620272, 30.884394 ], [ 31.622287, 30.848195 ], [ 31.575727, 30.805381 ], [ 31.420852, 30.795743 ], [ 31.367316, 30.771688 ], [ 31.357549, 30.726239 ], [ 31.3807, 30.61671 ], [ 31.352898, 30.573767 ], [ 31.295796, 30.570331 ], [ 31.253731, 30.588392 ], [ 31.270422, 30.661023 ], [ 31.213888, 30.837033 ], [ 31.254764, 30.853698 ], [ 31.234817, 30.881785 ], [ 31.255281, 30.888632 ], [ 31.241794, 30.899251 ], [ 31.262154, 30.922764 ], [ 31.255281, 30.963718 ], [ 31.296881, 30.984207 ], [ 31.305717, 31.017022 ], [ 31.301532, 31.032163 ], [ 31.24753, 31.017771 ], [ 31.218384, 31.031078 ], [ 31.237453, 31.114742 ], [ 31.299516, 31.130968 ], [ 31.273471, 31.162155 ], [ 31.282463, 31.349017 ], [ 31.270371, 31.419064 ], [ 31.245049, 31.455341 ], [ 31.251716, 31.478518 ], [ 31.349907, 31.529664 ], [ 31.523692, 31.449652 ], [ 31.571612, 31.443752 ], [ 31.500331, 31.364959 ], [ 31.559604, 31.351317 ], [ 31.564255, 31.325814 ], [ 31.633914, 31.290597 ], [ 31.650192, 31.29964 ], [ 31.651123, 31.325969 ], [ 31.682025, 31.333385 ], [ 31.6905, 31.310621 ], [ 31.689777, 31.286566 ], [ 31.666212, 31.29269 ], [ 31.659391, 31.278401 ], [ 31.676289, 31.258971 ], [ 31.625646, 31.243184 ], [ 31.632054, 31.216958 ], [ 31.596759, 31.190861 ], [ 31.61004, 31.164791 ], [ 31.779642, 31.246026 ], [ 31.794932, 31.277696 ] ] ], [ [ [ 32.093761, 31.365668 ], [ 32.129161, 31.337388 ], [ 32.199555, 31.295071 ], [ 32.070079, 31.35399 ], [ 32.090587, 31.347154 ], [ 32.093761, 31.365668 ] ] ] ] } },
{ "type": "Feature", "properties": { "gov": "Damietta", "gov_ar": "محافظة دمياط", "system": "Delta - rice belt", "cultivated_kfeddan": 105, "cultivated_ha": 44100.0, "gov_area_ha": 67055.528692690074 }, "geometry": { "type": "Polygon", "coordinates": [ [ [ 32.082917, 31.359007 ], [ 31.994965, 31.394965 ], [ 31.968272, 31.43651 ], [ 31.9935, 31.437812 ], [ 31.917979, 31.523993 ], [ 31.865245, 31.525336 ], [ 31.844737, 31.497992 ], [ 31.865245, 31.497992 ], [ 31.878917, 31.429145 ], [ 31.841645, 31.464504 ], [ 31.824229, 31.443345 ], [ 31.858409, 31.443345 ], [ 31.854828, 31.423163 ], [ 31.878917, 31.416083 ], [ 31.830414, 31.408637 ], [ 31.844737, 31.394965 ], [ 31.827891, 31.368354 ], [ 31.858409, 31.35399 ], [ 31.797211, 31.359524 ], [ 31.795909, 31.310981 ], [ 31.769054, 31.298774 ], [ 31.773204, 31.275865 ], [ 31.794932, 31.277696 ], [ 31.779642, 31.246026 ], [ 31.61004, 31.164791 ], [ 31.596759, 31.190861 ], [ 31.632054, 31.216958 ], [ 31.625646, 31.243184 ], [ 31.676289, 31.258971 ], [ 31.659391, 31.278401 ], [ 31.666212, 31.29269 ], [ 31.693136, 31.291088 ], [ 31.686211, 31.325788 ], [ 31.651123, 31.325969 ], [ 31.650192, 31.29964 ], [ 31.633914, 31.290597 ], [ 31.564255, 31.325814 ], [ 31.559604, 31.351317 ], [ 31.499246, 31.37054 ], [ 31.571612, 31.443752 ], [ 31.748302, 31.481594 ], [ 31.87436, 31.53559 ], [ 31.912934, 31.534898 ], [ 31.944835, 31.520941 ], [ 32.009044, 31.417182 ], [ 32.056977, 31.375149 ], [ 32.093761, 31.365668 ], [ 32.082917, 31.359007 ] ] ] } },
{ "type": "Feature", "properties": { "gov": "Fayoum", "gov_ar": "محافظة الفيوم", "system": "Nile Valley", "cultivated_kfeddan": 400, "cultivated_ha": 168000.0, "gov_area_ha": 600188.2053921452 }, "geometry": { "type": "Polygon", "coordinates": [ [ [ 31.101854, 29.400118 ], [ 30.864297, 29.120626 ], [ 30.780168, 29.082385 ], [ 30.363708, 28.979756 ], [ 30.316372, 28.976242 ], [ 30.249761, 29.018126 ], [ 29.814852, 29.088432 ], [ 30.354974, 29.53644 ], [ 30.536255, 29.630362 ], [ 30.74601, 29.714285 ], [ 30.955816, 29.737074 ], [ 31.002377, 29.705396 ], [ 31.030489, 29.680514 ], [ 31.101854, 29.400118 ] ] ] } },
{ "type": "Feature", "properties": { "gov": "Gharbia", "gov_ar": "محافظة الغربية", "system": "Delta - other", "cultivated_kfeddan": 410, "cultivated_ha": 172200.0, "gov_area_ha": 192671.4143668607 }, "geometry": { "type": "Polygon", "coordinates": [ [ [ 30.996486, 30.679575 ], [ 30.927601, 30.71673 ], [ 30.796084, 30.680221 ], [ 30.774432, 30.716446 ], [ 30.792415, 30.763626 ], [ 30.768541, 30.760087 ], [ 30.753245, 30.775538 ], [ 30.816497, 30.827163 ], [ 30.761875, 30.827163 ], [ 30.793811, 30.868297 ], [ 30.75712, 30.88597 ], [ 30.782338, 30.922764 ], [ 30.751643, 30.976766 ], [ 30.780168, 31.004464 ], [ 30.849053, 30.982502 ], [ 30.908481, 30.99015 ], [ 30.951786, 31.015239 ], [ 31.023771, 31.019037 ], [ 31.048937, 31.034282 ], [ 31.070796, 31.121227 ], [ 31.157251, 31.110582 ], [ 31.190117, 31.132441 ], [ 31.22195, 31.129806 ], [ 31.24846, 31.109859 ], [ 31.236213, 31.112804 ], [ 31.218384, 31.031078 ], [ 31.24753, 31.017771 ], [ 31.305407, 31.029708 ], [ 31.296881, 30.984207 ], [ 31.255281, 30.963718 ], [ 31.262154, 30.922764 ], [ 31.241794, 30.899251 ], [ 31.255281, 30.888632 ], [ 31.234817, 30.881785 ], [ 31.254764, 30.853698 ], [ 31.213888, 30.837033 ], [ 31.270422, 30.661023 ], [ 31.251199, 30.565086 ], [ 31.172134, 30.634952 ], [ 31.09033, 30.646243 ], [ 31.060564, 30.688127 ], [ 30.996486, 30.679575 ] ] ] } },
{ "type": "Feature", "properties": { "gov": "Giza", "gov_ar": "محافظة الجيزة", "system": "Nile Valley", "cultivated_kfeddan": 200, "cultivated_ha": 84000.0, "gov_area_ha": 3754375.8822322679 }, "geometry": { "type": "Polygon", "coordinates": [ [ [ 29.749223, 28.759304 ], [ 29.587063, 28.384443 ], [ 29.459939, 28.236055 ], [ 29.308527, 28.136448 ], [ 28.846126, 27.920828 ], [ 28.774864, 27.873157 ], [ 28.653218, 27.667898 ], [ 27.324772, 27.667898 ], [ 27.757097, 28.483559 ], [ 27.831873, 28.566474 ], [ 28.699158, 28.775091 ], [ 28.901006, 28.908882 ], [ 29.550579, 29.482826 ], [ 30.328619, 29.898201 ], [ 30.368979, 29.970781 ], [ 30.833085, 30.333808 ], [ 30.909566, 30.339931 ], [ 30.926981, 30.291821 ], [ 30.969924, 30.27345 ], [ 30.991215, 30.215365 ], [ 31.067851, 30.221618 ], [ 31.166553, 30.156015 ], [ 31.228616, 30.141158 ], [ 31.237608, 30.114777 ], [ 31.221175, 30.007859 ], [ 31.288819, 29.885075 ], [ 31.29161, 29.759863 ], [ 31.928935, 29.783169 ], [ 31.869146, 28.968206 ], [ 31.501106, 29.065926 ], [ 31.432996, 29.103133 ], [ 31.255281, 29.298755 ], [ 31.255901, 29.339346 ], [ 31.234817, 29.371541 ], [ 31.172599, 29.397922 ], [ 31.101854, 29.400118 ], [ 31.030489, 29.680514 ], [ 30.955816, 29.737074 ], [ 30.74601, 29.714285 ], [ 30.536255, 29.630362 ], [ 30.281594, 29.485048 ], [ 29.814852, 29.088432 ], [ 29.749223, 28.759304 ] ] ] } },
{ "type": "Feature", "properties": { "gov": "Ismailia", "gov_ar": "محافظة الإسماعيلية", "system": "Delta - other", "cultivated_kfeddan": 250, "cultivated_ha": 105000.0, "gov_area_ha": 570726.65700627095 }, "geometry": { "type": "Polygon", "coordinates": [ [ [ 32.142579, 31.080269 ], [ 32.311237, 31.118773 ], [ 32.602072, 30.973743 ], [ 32.651992, 30.504107 ], [ 32.745733, 30.372901 ], [ 32.79865, 30.254045 ], [ 32.577371, 30.263269 ], [ 32.459135, 30.203764 ], [ 32.334078, 30.237121 ], [ 32.247624, 30.242961 ], [ 31.887336, 30.232367 ], [ 31.800416, 30.504366 ], [ 31.763777, 30.557205 ], [ 31.877259, 30.547981 ], [ 31.974049, 30.559608 ], [ 32.098641, 30.677275 ], [ 32.130008, 30.742103 ], [ 32.117916, 30.83339 ], [ 32.201838, 30.993819 ], [ 32.192227, 31.035961 ], [ 32.142579, 31.080269 ] ] ] } },
{ "type": "Feature", "properties": { "gov": "Kafr El Sheikh", "gov_ar": "محافظة كفر الشيخ", "system": "Delta - rice belt", "cultivated_kfeddan": 610, "cultivated_ha": 256200.0, "gov_area_ha": 345955.32693392411 }, "geometry": { "type": "Polygon", "coordinates": [ [ [ 30.424841, 31.42909 ], [ 30.370616, 31.461615 ], [ 30.362153, 31.508734 ], [ 30.456391, 31.462714 ], [ 30.535818, 31.463853 ], [ 30.973888, 31.586737 ], [ 30.628103, 31.434312 ], [ 30.557872, 31.422187 ], [ 30.542654, 31.394965 ], [ 30.62672, 31.388658 ], [ 30.675059, 31.421576 ], [ 30.734386, 31.388129 ], [ 30.756196, 31.423 ], [ 30.798513, 31.446479 ], [ 30.892426, 31.419094 ], [ 30.939708, 31.443345 ], [ 30.939708, 31.457017 ], [ 30.980724, 31.43651 ], [ 31.029145, 31.5185 ], [ 31.08074, 31.514228 ], [ 31.111095, 31.491156 ], [ 31.129242, 31.504462 ], [ 31.111095, 31.512274 ], [ 31.130382, 31.516995 ], [ 31.070811, 31.565375 ], [ 30.978038, 31.584296 ], [ 31.097423, 31.607896 ], [ 31.349907, 31.529664 ], [ 31.276882, 31.496011 ], [ 31.245979, 31.463894 ], [ 31.282463, 31.349017 ], [ 31.273471, 31.162155 ], [ 31.299516, 31.130968 ], [ 31.24846, 31.109859 ], [ 31.201641, 31.133087 ], [ 31.157251, 31.110582 ], [ 31.070796, 31.121227 ], [ 31.040101, 31.025678 ], [ 30.849053, 30.982502 ], [ 30.780168, 31.004464 ], [ 30.763632, 30.983613 ], [ 30.727717, 31.01896 ], [ 30.727717, 31.052472 ], [ 30.699346, 31.092159 ], [ 30.652011, 31.114561 ], [ 30.570155, 31.199595 ], [ 30.525403, 31.196494 ], [ 30.51481, 31.238068 ], [ 30.494346, 31.238068 ], [ 30.520236, 31.28946 ], [ 30.51822, 31.32814 ], [ 30.483339, 31.354572 ], [ 30.47383, 31.33987 ], [ 30.458276, 31.348009 ], [ 30.44856, 31.375088 ], [ 30.426081, 31.384855 ], [ 30.424841, 31.42909 ] ] ] } },
{ "type": "Feature", "properties": { "gov": "Luxor", "gov_ar": "محافظة الأقصر", "system": "Nile Valley", "cultivated_kfeddan": 100, "cultivated_ha": 42000.0, "gov_area_ha": 1229.4233248146811 }, "geometry": { "type": "Polygon", "coordinates": [ [ [ 32.649684, 25.729935 ], [ 32.66937, 25.721108 ], [ 32.651394, 25.683121 ], [ 32.624912, 25.687206 ], [ 32.649684, 25.729935 ] ] ] } },
{ "type": "Feature", "properties": { "gov": "Menoufia", "gov_ar": "محافظة المنوفية", "system": "Delta - other", "cultivated_kfeddan": 350, "cultivated_ha": 147000.0, "gov_area_ha": 144842.34823082501 }, "geometry": { "type": "Polygon", "coordinates": [ [ [ 31.029352, 30.209578 ], [ 30.978812, 30.225804 ], [ 30.969924, 30.27345 ], [ 30.926981, 30.291821 ], [ 30.917007, 30.336185 ], [ 30.882746, 30.345822 ], [ 30.851223, 30.326263 ], [ 30.826574, 30.347967 ], [ 30.87949, 30.372901 ], [ 30.844402, 30.401375 ], [ 30.851223, 30.453206 ], [ 30.830759, 30.497596 ], [ 30.851223, 30.545991 ], [ 30.823938, 30.552218 ], [ 30.837581, 30.586971 ], [ 30.817168, 30.595652 ], [ 30.798307, 30.637665 ], [ 30.796084, 30.680221 ], [ 30.822078, 30.69438 ], [ 30.927601, 30.71673 ], [ 30.996486, 30.679575 ], [ 31.060564, 30.688127 ], [ 31.09033, 30.646243 ], [ 31.179575, 30.63056 ], [ 31.262154, 30.552218 ], [ 31.227996, 30.55966 ], [ 31.227996, 30.51806 ], [ 31.136064, 30.446385 ], [ 31.125212, 30.40277 ], [ 31.101285, 30.416361 ], [ 31.106711, 30.382487 ], [ 31.056069, 30.374684 ], [ 31.103869, 30.33249 ], [ 31.111311, 30.226967 ], [ 31.145417, 30.175445 ], [ 31.067851, 30.221618 ], [ 31.029352, 30.209578 ] ] ] } },
{ "type": "Feature", "properties": { "gov": "Minya", "gov_ar": "محافظة المنيا", "system": "Nile Valley", "cultivated_kfeddan": 620, "cultivated_ha": 260400.0, "gov_area_ha": 1938531.3617829471 }, "geometry": { "type": "Polygon", "coordinates": [ [ [ 28.653218, 27.667898 ], [ 28.774864, 27.873157 ], [ 28.846126, 27.920828 ], [ 29.308527, 28.136448 ], [ 29.459939, 28.236055 ], [ 29.587063, 28.384443 ], [ 29.749223, 28.759304 ], [ 30.768696, 28.780957 ], [ 30.944189, 28.715664 ], [ 30.90724, 28.450951 ], [ 30.852618, 28.365943 ], [ 30.815411, 28.258715 ], [ 30.833395, 28.14805 ], [ 30.907395, 28.002684 ], [ 30.920935, 27.881038 ], [ 30.954731, 27.78572 ], [ 30.959227, 27.715725 ], [ 30.941244, 27.620149 ], [ 30.83448, 27.608703 ], [ 30.76544, 27.630924 ], [ 30.698416, 27.623611 ], [ 30.671234, 27.634024 ], [ 30.687822, 27.66764 ], [ 28.653218, 27.667898 ] ] ] } },
{ "type": "Feature", "properties": { "gov": "Port Said", "gov_ar": "محافظة بورسعيد", "system": "Delta - other", "cultivated_kfeddan": 50, "cultivated_ha": 21000.0, "gov_area_ha": 40060.787721687528 }, "geometry": { "type": "Polygon", "coordinates": [ [ [ 32.256602, 31.288804 ], [ 32.331391, 31.27143 ], [ 32.344249, 31.241889 ], [ 32.389903, 31.226508 ], [ 32.509532, 31.10692 ], [ 32.599678, 31.061516 ], [ 32.602072, 30.973743 ], [ 32.311237, 31.118773 ], [ 32.289998, 31.113786 ], [ 32.295095, 31.213365 ], [ 32.270518, 31.257554 ], [ 32.28297, 31.265286 ], [ 32.256602, 31.288804 ] ] ] } },
{ "type": "Feature", "properties": { "gov": "Qalyubia", "gov_ar": "محافظة القليوبية", "system": "Delta - other", "cultivated_kfeddan": 200, "cultivated_ha": 84000.0, "gov_area_ha": 101104.60933244052 }, "geometry": { "type": "Polygon", "coordinates": [ [ [ 31.593865, 30.190431 ], [ 31.326233, 30.164593 ], [ 31.306182, 30.137205 ], [ 31.237608, 30.114777 ], [ 31.228616, 30.141158 ], [ 31.166553, 30.156015 ], [ 31.115496, 30.215494 ], [ 31.103869, 30.33249 ], [ 31.056069, 30.374684 ], [ 31.106711, 30.382487 ], [ 31.101285, 30.416361 ], [ 31.125212, 30.40277 ], [ 31.136064, 30.446385 ], [ 31.227996, 30.51806 ], [ 31.227996, 30.55966 ], [ 31.262154, 30.552218 ], [ 31.253731, 30.588392 ], [ 31.295796, 30.570331 ], [ 31.352898, 30.573767 ], [ 31.29409, 30.52824 ], [ 31.272541, 30.43698 ], [ 31.342666, 30.359207 ], [ 31.385661, 30.280452 ], [ 31.593865, 30.190431 ] ] ] } },
{ "type": "Feature", "properties": { "gov": "Qena", "gov_ar": "محافظة قنا", "system": "Nile Valley", "cultivated_kfeddan": 300, "cultivated_ha": 126000.0, "gov_area_ha": 359357.38408672897 }, "geometry": { "type": "Polygon", "coordinates": [ [ [ 32.13714, 26.236797 ], [ 32.211192, 26.158817 ], [ 32.27, 26.131196 ], [ 32.539802, 26.251654 ], [ 32.684445, 26.25894 ], [ 32.806401, 26.213517 ], [ 32.894406, 26.114014 ], [ 32.929908, 25.971283 ], [ 32.915025, 25.858525 ], [ 32.84521, 25.73954 ], [ 32.66057, 25.571876 ], [ 32.623001, 25.499012 ], [ 32.64021, 25.356566 ], [ 32.664136, 25.307164 ], [ 32.704753, 25.269879 ], [ 32.693746, 25.179213 ], [ 32.653852, 25.145701 ], [ 32.558923, 25.211691 ], [ 32.519338, 25.260293 ], [ 32.443012, 25.59712 ], [ 32.494069, 25.664816 ], [ 32.6584, 25.792638 ], [ 32.68708, 25.894156 ], [ 32.748058, 26.001152 ], [ 32.742322, 26.06598 ], [ 32.696072, 26.105849 ], [ 32.618661, 26.104118 ], [ 32.361054, 26.000145 ], [ 32.224059, 25.970095 ], [ 32.162926, 25.978725 ], [ 32.110785, 26.005416 ], [ 31.952345, 26.139852 ], [ 32.013013, 26.184061 ], [ 32.085463, 26.194965 ], [ 32.13714, 26.236797 ] ], [ [ 32.651394, 25.683121 ], [ 32.66937, 25.721108 ], [ 32.649684, 25.729935 ], [ 32.624912, 25.687206 ], [ 32.651394, 25.683121 ] ] ] } },
{ "type": "Feature", "properties": { "gov": "Sharqia", "gov_ar": "محافظة الشرقية", "system": "Delta - rice belt", "cultivated_kfeddan": 900, "cultivated_ha": 378000.0, "gov_area_ha": 491782.17538194638 }, "geometry": { "type": "MultiPolygon", "coordinates": [ [ [ [ 32.14184, 31.087358 ], [ 32.16627, 31.114407 ], [ 32.179942, 31.10692 ], [ 32.183849, 31.124945 ], [ 32.218516, 31.105211 ], [ 32.272227, 31.118883 ], [ 32.280528, 31.154975 ], [ 32.262462, 31.169623 ], [ 32.288138, 31.169028 ], [ 32.289998, 31.113786 ], [ 32.14184, 31.087358 ] ] ], [ [ [ 32.052337, 31.128774 ], [ 32.070079, 31.10692 ], [ 32.043956, 31.086493 ], [ 32.083751, 31.084418 ], [ 32.083751, 31.065985 ], [ 32.106456, 31.053371 ], [ 32.132091, 31.065985 ], [ 32.107432, 31.072821 ], [ 32.097992, 31.093329 ], [ 32.142579, 31.080269 ], [ 32.192227, 31.035961 ], [ 32.200443, 30.981417 ], [ 32.117916, 30.83339 ], [ 32.130008, 30.742103 ], [ 32.119621, 30.716058 ], [ 32.032081, 30.601776 ], [ 31.974049, 30.559608 ], [ 31.877259, 30.547981 ], [ 31.763777, 30.557205 ], [ 31.809718, 30.479225 ], [ 31.843101, 30.339027 ], [ 31.593865, 30.190431 ], [ 31.385661, 30.280452 ], [ 31.342666, 30.359207 ], [ 31.272541, 30.43698 ], [ 31.29409, 30.52824 ], [ 31.376049, 30.596582 ], [ 31.357549, 30.726239 ], [ 31.367316, 30.771688 ], [ 31.420852, 30.795743 ], [ 31.575727, 30.805381 ], [ 31.622287, 30.848195 ], [ 31.620272, 30.884394 ], [ 31.668228, 30.908553 ], [ 31.783518, 31.065856 ], [ 31.948159, 31.084072 ], [ 32.052337, 31.128774 ] ] ] ] } },
{ "type": "Feature", "properties": { "gov": "Sohag", "gov_ar": "محافظة سوهاج", "system": "Nile Valley", "cultivated_kfeddan": 420, "cultivated_ha": 176400.0, "gov_area_ha": 264600.4027391792 }, "geometry": { "type": "Polygon", "coordinates": [ [ [ 32.27, 26.131196 ], [ 32.211192, 26.158817 ], [ 32.13714, 26.236797 ], [ 32.085463, 26.194965 ], [ 32.013013, 26.184061 ], [ 31.952345, 26.139852 ], [ 31.533972, 26.610598 ], [ 31.438888, 26.683462 ], [ 31.299981, 26.83738 ], [ 31.393102, 26.882468 ], [ 31.461987, 26.940113 ], [ 31.552782, 26.837225 ], [ 31.619032, 26.833194 ], [ 31.786928, 26.728421 ], [ 31.831008, 26.689973 ], [ 31.895862, 26.589153 ], [ 31.919427, 26.499416 ], [ 31.958856, 26.439084 ], [ 32.032701, 26.38392 ], [ 32.155278, 26.346842 ], [ 32.307517, 26.158197 ], [ 32.27, 26.131196 ] ] ] } }
]
}
